{
  "norad_id": 68552,
  "name": "STARLINK-37295",
  "history": [
    {
      "epoch": "2026-04-09T20:00:01.999008Z",
      "apogee_km": 275.5145220575441,
      "perigee_km": 274.4619976414351,
      "latitude_deg": -41.24025801493006,
      "longitude_deg": 49.96014296012056,
      "height_km": 288.81264285529045,
      "semi_major_axis_km": 6653.125259849489,
      "eccentricity": 7.91e-05,
      "inclination_deg": 53.1584,
      "raan_deg": 228.8209,
      "arg_perigee_deg": 52.5125,
      "mean_anomaly_deg": 252.3801,
      "mean_motion_rev_day": 15.99794546
    }
  ]
}