STARLINK-37295          
1 68552U 26070L   26099.83335647 -.00901507  27483-3 -17325-2 0  9997
2 68552  53.1584 228.8209 0000791  52.5125 252.3801 15.99794546  2385
